start=new Date('2022-07-27T00:00:00.000Z').valueOf();
sats=[{"SITE":"AFETR","MEAN_MOTION_DDOT":"0.0000000000000","LAUNCH_DATE":"2020-11-25","CENTER_NAME":"EARTH","CLASSIFICATION_TYPE":"U","EPHEMERIS_TYPE":"0","OBJECT_TYPE":"PAYLOAD","MEAN_MOTION_DOT":"0.00000138","OBJECT_NAME":"STARLINK-1891","COUNTRY_CODE":"US","INCLINATION":"53.0554","REF_FRAME":"TEME","MEAN_MOTION":"15.06392766","ARG_OF_PERICENTER":"69.1436","ECCENTRICITY":"0.00017970","OBJECT_ID":"2020-088BE","TLE_LINE1":"1 47174U 20088BE  22207.75987733  .00000138  00000-0  28196-4 0  9995","ELEMENT_SET_NO":"999","MEAN_ANOMALY":"290.9746","DECAY_DATE":null,"EPOCH":"2022-07-26T18:14:13.401312","NORAD_CAT_ID":"47174","PERIOD":"95.593","PERIAPSIS":"545.991","TLE_LINE2":"2 47174  53.0554 115.9875 0001797  69.1436 290.9746 15.06392766 92593","SEMIMAJOR_AXIS":"6925.371","REV_AT_EPOCH":"9259","BSTAR":"0.00002819600000","APOAPSIS":"548.480","GP_ID":"208929036","FILE":"3522469","TIME_SYSTEM":"UTC","RCS_SIZE":"LARGE","RA_OF_ASC_NODE":"115.9875","MEAN_ELEMENT_THEORY":"SGP4"},{"SEMIMAJOR_AXIS":"6925.348","TLE_LINE2":"2 47175  53.0560  95.4142 0001639  71.6738 288.4429 15.06400063 92891","REV_AT_EPOCH":"9289","BSTAR":"0.00007170500000","MEAN_ELEMENT_THEORY":"SGP4","APOAPSIS":"548.348","GP_ID":"208929787","FILE":"3522469","TIME_SYSTEM":"UTC","RCS_SIZE":"LARGE","RA_OF_ASC_NODE":"95.4142","MEAN_ANOMALY":"288.4429","TLE_LINE1":"1 47175U 20088BF  22207.89072128  .00000787  00000-0  71705-4 0  9998","ELEMENT_SET_NO":"999","NORAD_CAT_ID":"47175","PERIOD":"95.592","PERIAPSIS":"546.078","DECAY_DATE":null,"EPOCH":"2022-07-26T21:22:38.318592","COUNTRY_CODE":"US","OBJECT_NAME":"STARLINK-1895","INCLINATION":"53.0560","REF_FRAME":"TEME","MEAN_MOTION_DOT":"0.00000787","MEAN_MOTION":"15.06400063","ARG_OF_PERICENTER":"71.6738","ECCENTRICITY":"0.00016390","OBJECT_ID":"2020-088BF","CENTER_NAME":"EARTH","SITE":"AFETR","MEAN_MOTION_DDOT":"0.0000000000000","LAUNCH_DATE":"2020-11-25","EPHEMERIS_TYPE":"0","CLASSIFICATION_TYPE":"U","OBJECT_TYPE":"PAYLOAD"},{"MEAN_ELEMENT_THEORY":"SGP4","RCS_SIZE":"LARGE","RA_OF_ASC_NODE":"105.4867","FILE":"3522469","TIME_SYSTEM":"UTC","GP_ID":"208928535","APOAPSIS":"548.334","BSTAR":"0.00019681000000","REV_AT_EPOCH":"9275","SEMIMAJOR_AXIS":"6925.329","TLE_LINE2":"2 47177  53.0552 105.4867 0001646  73.4295 286.6875 15.06406409 92756","PERIAPSIS":"546.054","PERIOD":"95.592","NORAD_CAT_ID":"47177","EPOCH":"2022-07-26T21:00:05.464800","DECAY_DATE":null,"MEAN_ANOMALY":"286.6875","ELEMENT_SET_NO":"999","TLE_LINE1":"1 47177U 20088BH  22207.87506325  .00002652  00000-0  19681-3 0  9996","OBJECT_ID":"2020-088BH","ECCENTRICITY":"0.00016460","ARG_OF_PERICENTER":"73.4295","MEAN_MOTION":"15.06406409","REF_FRAME":"TEME","INCLINATION":"53.0552","OBJECT_NAME":"STARLINK-1907","COUNTRY_CODE":"US","MEAN_MOTION_DOT":"0.00002652","OBJECT_TYPE":"PAYLOAD","EPHEMERIS_TYPE":"0","CLASSIFICATION_TYPE":"U","CENTER_NAME":"EARTH","LAUNCH_DATE":"2020-11-25","SITE":"AFETR","MEAN_MOTION_DDOT":"0.0000000000000"},{"INCLINATION":"53.0548","REF_FRAME":"TEME","COUNTRY_CODE":"US","OBJECT_NAME":"STARLINK-1912","MEAN_MOTION_DOT":"0.00005318","ECCENTRICITY":"0.00015290","OBJECT_ID":"2020-088BJ","MEAN_MOTION":"15.06393653","ARG_OF_PERICENTER":"82.3931","CENTER_NAME":"EARTH","LAUNCH_DATE":"2020-11-25","SITE":"AFETR","MEAN_MOTION_DDOT":"0.0000000000000","OBJECT_TYPE":"PAYLOAD","CLASSIFICATION_TYPE":"U","EPHEMERIS_TYPE":"0","REV_AT_EPOCH":"9260","BSTAR":"0.00037567000000","SEMIMAJOR_AXIS":"6925.368","TLE_LINE2":"2 47178  53.0548 115.5643 0001529  82.3931 277.7232 15.06393653 92600","MEAN_ELEMENT_THEORY":"SGP4","TIME_SYSTEM":"UTC","FILE":"3522469","RCS_SIZE":"LARGE","RA_OF_ASC_NODE":"115.5643","APOAPSIS":"548.292","GP_ID":"208928285","MEAN_ANOMALY":"277.7232","ELEMENT_SET_NO":"999","TLE_LINE1":"1 47178U 20088BJ  22207.85571868  .00005318  00000-0  37567-3 0  9994","PERIAPSIS":"546.174","NORAD_CAT_ID":"47178","PERIOD":"95.593","EPOCH":"2022-07-26T20:32:14.093952","DECAY_DATE":null},{"MEAN_MOTION_DDOT":"0.0000000000000","SITE":"AFETR","LAUNCH_DATE":"2020-11-25","CENTER_NAME":"EARTH","EPHEMERIS_TYPE":"0","CLASSIFICATION_TYPE":"U","OBJECT_TYPE":"PAYLOAD","MEAN_MOTION_DOT":"0.00001343","COUNTRY_CODE":"US","OBJECT_NAME":"STARLINK-1913","REF_FRAME":"TEME","INCLINATION":"53.0563","ARG_OF_PERICENTER":"86.0870","MEAN_MOTION":"15.06397788","OBJECT_ID":"2020-088BK","ECCENTRICITY":"0.00014630","TLE_LINE1":"1 47179U 20088BK  22207.77737913  .00001343  00000-0  10903-3 0  9990","ELEMENT_SET_NO":"999","MEAN_ANOMALY":"274.0286","DECAY_DATE":null,"EPOCH":"2022-07-26T18:39:25.556832","PERIOD":"95.592","NORAD_CAT_ID":"47179","PERIAPSIS":"546.207","TLE_LINE2":"2 47179  53.0563 125.9181 0001463  86.0870 274.0286 15.06397788 92455","SEMIMAJOR_AXIS":"6925.355","BSTAR":"0.00010903000000","REV_AT_EPOCH":"9245","GP_ID":"208929537","APOAPSIS":"548.234","RCS_SIZE":"LARGE","RA_OF_ASC_NODE":"125.9181","TIME_SYSTEM":"UTC","FILE":"3522469","MEAN_ELEMENT_THEORY":"SGP4"},{"OBJECT_ID":"2020-088BM","ECCENTRICITY":"0.00014310","ARG_OF_PERICENTER":"77.7531","MEAN_MOTION":"15.06398211","REF_FRAME":"TEME","INCLINATION":"53.0551","OBJECT_NAME":"STARLINK-1927","COUNTRY_CODE":"US","MEAN_MOTION_DOT":"0.00001163","OBJECT_TYPE":"PAYLOAD","CLASSIFICATION_TYPE":"U","EPHEMERIS_TYPE":"0","CENTER_NAME":"EARTH","LAUNCH_DATE":"2020-11-25","SITE":"AFETR","MEAN_MOTION_DDOT":"0.0000000000000","MEAN_ELEMENT_THEORY":"SGP4","RA_OF_ASC_NODE":"95.4546","RCS_SIZE":"LARGE","TIME_SYSTEM":"UTC","FILE":"3522469","GP_ID":"208929287","APOAPSIS":"548.210","BSTAR":"0.00009698600000","REV_AT_EPOCH":"9288","TLE_LINE2":"2 47181  53.0551  95.4546 0001431  77.7531 282.3619 15.06398211 92888","SEMIMAJOR_AXIS":"6925.354","PERIAPSIS":"546.228","PERIOD":"95.592","NORAD_CAT_ID":"47181","EPOCH":"2022-07-26T21:12:01.357056","DECAY_DATE":null,"MEAN_ANOMALY":"282.3619","ELEMENT_SET_NO":"999","TLE_LINE1":"1 47181U 20088BM  22207.88334904  .00001163  00000-0  96986-4 0  9994"},{"FILE":"3522469","TIME_SYSTEM":"UTC","RCS_SIZE":"LARGE","RA_OF_ASC_NODE":"77.7438","APOAPSIS":"339.548","GP_ID":"208928803","MEAN_ELEMENT_THEORY":"SGP4","REV_AT_EPOCH":"8601","BSTAR":"0.00019641000000","TLE_LINE2":"2 47349  53.0282  77.7438 0007996 297.4159  62.6047 15.78680443 86019","SEMIMAJOR_AXIS":"6712.315","EPOCH":"2022-07-26T20:17:54.610080","DECAY_DATE":null,"PERIAPSIS":"328.813","NORAD_CAT_ID":"47349","PERIOD":"91.215","ELEMENT_SET_NO":"999","TLE_LINE1":"1 47349U 21005A   22207.84577095  .00034608  00000-0  19641-3 0  9998","MEAN_ANOMALY":"62.6047","ECCENTRICITY":"0.00079960","OBJECT_ID":"2021-005A","MEAN_MOTION":"15.78680443","ARG_OF_PERICENTER":"297.4159","MEAN_MOTION_DOT":"0.00034608","INCLINATION":"53.0282","REF_FRAME":"TEME","OBJECT_NAME":"STARLINK-1952","COUNTRY_CODE":"US","OBJECT_TYPE":"PAYLOAD","CLASSIFICATION_TYPE":"U","EPHEMERIS_TYPE":"0","LAUNCH_DATE":"2021-01-20","MEAN_MOTION_DDOT":"0.0000000000000","SITE":"AFETR","CENTER_NAME":"EARTH"},{"MEAN_MOTION_DDOT":"0.0000000000000","SITE":"AFETR","LAUNCH_DATE":"2021-01-20","CENTER_NAME":"EARTH","CLASSIFICATION_TYPE":"U","EPHEMERIS_TYPE":"0","OBJECT_TYPE":"PAYLOAD","MEAN_MOTION_DOT":"-0.00000051","OBJECT_NAME":"STARLINK-2011","COUNTRY_CODE":"US","REF_FRAME":"TEME","INCLINATION":"53.0538","ARG_OF_PERICENTER":"61.7539","MEAN_MOTION":"15.06390679","OBJECT_ID":"2021-005B","ECCENTRICITY":"0.00015360","TLE_LINE1":"1 47350U 21005B   22207.45763185 -.00000051  00000-0  15478-4 0  9995","ELEMENT_SET_NO":"999","MEAN_ANOMALY":"298.3605","DECAY_DATE":null,"EPOCH":"2022-07-26T10:58:59.391840","PERIOD":"95.593","NORAD_CAT_ID":"47350","PERIAPSIS":"546.178","TLE_LINE2":"2 47350  53.0538 237.3578 0001536  61.7539 298.3605 15.06390679 83758","SEMIMAJOR_AXIS":"6925.377","BSTAR":"0.00001547800000","REV_AT_EPOCH":"8375","GP_ID":"208897993","APOAPSIS":"548.306","RA_OF_ASC_NODE":"237.3578","RCS_SIZE":"LARGE","TIME_SYSTEM":"UTC","FILE":"3522226","MEAN_ELEMENT_THEORY":"SGP4"},{"MEAN_MOTION_DOT":"-0.00000511","INCLINATION":"53.0544","REF_FRAME":"TEME","COUNTRY_CODE":"US","OBJECT_NAME":"STARLINK-2017","ECCENTRICITY":"0.00015820","OBJECT_ID":"2021-005C","MEAN_MOTION":"15.06394217","ARG_OF_PERICENTER":"70.3582","LAUNCH_DATE":"2021-01-20","SITE":"AFETR","MEAN_MOTION_DDOT":"0.0000000000000","CENTER_NAME":"EARTH","OBJECT_TYPE":"PAYLOAD","CLASSIFICATION_TYPE":"U","EPHEMERIS_TYPE":"0","REV_AT_EPOCH":"8429","BSTAR":"-0.00001538500000","TLE_LINE2":"2 47351  53.0544 197.8001 0001582  70.3582 289.7577 15.06394217 84296","SEMIMAJOR_AXIS":"6925.366","FILE":"3522226","TIME_SYSTEM":"UTC","RCS_SIZE":"LARGE","RA_OF_ASC_NODE":"197.8001","APOAPSIS":"548.327","GP_ID":"208898243","MEAN_ELEMENT_THEORY":"SGP4","ELEMENT_SET_NO":"999","TLE_LINE1":"1 47351U 21005C   22207.35347856 -.00000511  00000-0 -15385-4 0  9997","MEAN_ANOMALY":"289.7577","EPOCH":"2022-07-26T08:29:00.547584","DECAY_DATE":null,"PERIAPSIS":"546.136","NORAD_CAT_ID":"47351","PERIOD":"95.593"},{"MEAN_ELEMENT_THEORY":"SGP4","GP_ID":"208928553","APOAPSIS":"548.309","RCS_SIZE":"LARGE","RA_OF_ASC_NODE":"236.8483","FILE":"3522469","TIME_SYSTEM":"UTC","SEMIMAJOR_AXIS":"6925.397","TLE_LINE2":"2 47352  53.0537 236.8483 0001511  63.0943 297.0200 15.06384146 83765","BSTAR":"0.00006375100000","REV_AT_EPOCH":"8376","PERIOD":"95.593","NORAD_CAT_ID":"47352","PERIAPSIS":"546.216","DECAY_DATE":null,"EPOCH":"2022-07-26T13:43:32.046816","MEAN_ANOMALY":"297.0200","TLE_LINE1":"1 47352U 21005D   22207.57189869  .00000668  00000-0  63751-4 0  9991","ELEMENT_SET_NO":"999","ARG_OF_PERICENTER":"63.0943","MEAN_MOTION":"15.06384146","OBJECT_ID":"2021-005D","ECCENTRICITY":"0.00015110","OBJECT_NAME":"STARLINK-2034","COUNTRY_CODE":"US","REF_FRAME":"TEME","INCLINATION":"53.0537","MEAN_MOTION_DOT":"0.00000668","EPHEMERIS_TYPE":"0","CLASSIFICATION_TYPE":"U","OBJECT_TYPE":"PAYLOAD","CENTER_NAME":"EARTH","MEAN_MOTION_DDOT":"0.0000000000000","SITE":"AFETR","LAUNCH_DATE":"2021-01-20"}];
